1 29155U 06018A   12037.16286782 -.00000251  00000-0  10000-3 0  9386
2 29155 000.4141 080.7904 0001882 316.9298 082.0487 01.00269720 20928